COSMOS_2534-758
1 44299U 19030A   23123.70882641  .00000005  00000+0  00000+0 0  9991
2 44299  64.3969 231.1436 0010882 287.4513  74.1099  2.13102105 30633
